[{"OBJECT_NAME":"STARLINK-36709","OBJECT_ID":"2026-038J","EPOCH":"2026-03-08T14:00:01.999872","MEAN_MOTION":15.92424963,"ECCENTRICITY":0.00014408,"INCLINATION":97.2725,"RA_OF_ASC_NODE":77.7916,"ARG_OF_PERICENTER":97.1434,"MEAN_ANOMALY":123.2592,"EPHEMERIS_TYPE":0,"CLASSIFICATION_TYPE":"U","NORAD_CAT_ID":67969,"ELEMENT_SET_NO":999,"REV_AT_EPOCH":302,"BSTAR":-0.0051701793,"MEAN_MOTION_DOT":-0.01725743,"MEAN_MOTION_DDOT":0.00083096547},{"OBJECT_NAME":"STARLINK-36319","OBJECT_ID":"2026-038K","EPOCH":"2026-03-08T14:00:01.999872","MEAN_MOTION":15.92281747,"ECCENTRICITY":0.00014473,"INCLINATION":97.2724,"RA_OF_ASC_NODE":77.7895,"ARG_OF_PERICENTER":95.9038,"MEAN_ANOMALY":120.445,"EPHEMERIS_TYPE":0,"CLASSIFICATION_TYPE":"U","NORAD_CAT_ID":67970,"ELEMENT_SET_NO":999,"REV_AT_EPOCH":299,"BSTAR":-0.0052146903,"MEAN_MOTION_DOT":-0.01727781,"MEAN_MOTION_DDOT":0.00083158285},{"OBJECT_NAME":"STARLINK-36710","OBJECT_ID":"2026-038L","EPOCH":"2026-03-08T14:00:01.999872","MEAN_MOTION":15.92600141,"ECCENTRICITY":0.00014007,"INCLINATION":97.2719,"RA_OF_ASC_NODE":77.7937,"ARG_OF_PERICENTER":102.2676,"MEAN_ANOMALY":123.072,"EPHEMERIS_TYPE":0,"CLASSIFICATION_TYPE":"U","NORAD_CAT_ID":67971,"ELEMENT_SET_NO":999,"REV_AT_EPOCH":302,"BSTAR":-0.0051061814,"MEAN_MOTION_DOT":-0.01719922,"MEAN_MOTION_DDOT":0.00082722811},{"OBJECT_NAME":"STARLINK-36894","OBJECT_ID":"2026-038M","EPOCH":"2026-03-08T14:00:01.999872","MEAN_MOTION":15.92741268,"ECCENTRICITY":0.00014188,"INCLINATION":97.2715,"RA_OF_ASC_NODE":77.7953,"ARG_OF_PERICENTER":93.0938,"MEAN_ANOMALY":136.3014,"EPHEMERIS_TYPE":0,"CLASSIFICATION_TYPE":"U","NORAD_CAT_ID":67972,"ELEMENT_SET_NO":999,"REV_AT_EPOCH":302,"BSTAR":-0.0050450089,"MEAN_MOTION_DOT":-0.01711864,"MEAN_MOTION_DDOT":0.00082121351},{"OBJECT_NAME":"STARLINK-36900","OBJECT_ID":"2026-038N","EPOCH":"2026-03-08T14:00:01.999872","MEAN_MOTION":15.93033839,"ECCENTRICITY":0.00014114,"INCLINATION":97.2713,"RA_OF_ASC_NODE":77.7985,"ARG_OF_PERICENTER":102.7314,"MEAN_ANOMALY":134.7832,"EPHEMERIS_TYPE":0,"CLASSIFICATION_TYPE":"U","NORAD_CAT_ID":67973,"ELEMENT_SET_NO":999,"REV_AT_EPOCH":302,"BSTAR":-0.0049701168,"MEAN_MOTION_DOT":-0.01712218,"MEAN_MOTION_DDOT":0.00082398793},{"OBJECT_NAME":"STARLINK-36901","OBJECT_ID":"2026-038P","EPOCH":"2026-03-08T14:00:01.999872","MEAN_MOTION":15.92874765,"ECCENTRICITY":0.00013799,"INCLINATION":97.2713,"RA_OF_ASC_NODE":77.7966,"ARG_OF_PERICENTER":97.6101,"MEAN_ANOMALY":135.637,"EPHEMERIS_TYPE":0,"CLASSIFICATION_TYPE":"U","NORAD_CAT_ID":67974,"ELEMENT_SET_NO":999,"REV_AT_EPOCH":302,"BSTAR":-0.0049940063,"MEAN_MOTION_DOT":-0.0170637,"MEAN_MOTION_DDOT":0.00081742944},{"OBJECT_NAME":"STARLINK-36883","OBJECT_ID":"2026-038Q","EPOCH":"2026-03-08T14:00:01.999872","MEAN_MOTION":15.93626043,"ECCENTRICITY":0.0001369,"INCLINATION":97.2703,"RA_OF_ASC_NODE":77.8054,"ARG_OF_PERICENTER":94.6597,"MEAN_ANOMALY":159.3438,"EPHEMERIS_TYPE":0,"CLASSIFICATION_TYPE":"U","NORAD_CAT_ID":67975,"ELEMENT_SET_NO":999,"REV_AT_EPOCH":302,"BSTAR":-0.0047872876,"MEAN_MOTION_DOT":-0.0170104,"MEAN_MOTION_DDOT":0.0008189798},{"OBJECT_NAME":"STARLINK-36880","OBJECT_ID":"2026-038R","EPOCH":"2026-03-08T14:00:01.999872","MEAN_MOTION":15.9318248,"ECCENTRICITY":0.00014061,"INCLINATION":97.2709,"RA_OF_ASC_NODE":77.8002,"ARG_OF_PERICENTER":98.888,"MEAN_ANOMALY":142.7787,"EPHEMERIS_TYPE":0,"CLASSIFICATION_TYPE":"U","NORAD_CAT_ID":67976,"ELEMENT_SET_NO":999,"REV_AT_EPOCH":302,"BSTAR":-0.0049300348,"MEAN_MOTION_DOT":-0.01711587,"MEAN_MOTION_DDOT":0.00082468011},{"OBJECT_NAME":"STARLINK-36904","OBJECT_ID":"2026-038S","EPOCH":"2026-03-08T14:00:01.999872","MEAN_MOTION":15.93476071,"ECCENTRICITY":0.00013999,"INCLINATION":97.2703,"RA_OF_ASC_NODE":77.8033,"ARG_OF_PERICENTER":98.1212,"MEAN_ANOMALY":151.7493,"EPHEMERIS_TYPE":0,"CLASSIFICATION_TYPE":"U","NORAD_CAT_ID":67977,"ELEMENT_SET_NO":999,"REV_AT_EPOCH":302,"BSTAR":-0.0048335313,"MEAN_MOTION_DOT":-0.01704039,"MEAN_MOTION_DDOT":0.0008203985},{"OBJECT_NAME":"STARLINK-36364","OBJECT_ID":"2026-038T","EPOCH":"2026-03-08T14:00:01.999872","MEAN_MOTION":15.93978193,"ECCENTRICITY":0.00013017,"INCLINATION":97.2696,"RA_OF_ASC_NODE":77.8093,"ARG_OF_PERICENTER":97.9258,"MEAN_ANOMALY":165.8083,"EPHEMERIS_TYPE":0,"CLASSIFICATION_TYPE":"U","NORAD_CAT_ID":67978,"ELEMENT_SET_NO":999,"REV_AT_EPOCH":302,"BSTAR":-0.0046740359,"MEAN_MOTION_DOT":-0.01691818,"MEAN_MOTION_DDOT":0.0008136961},{"OBJECT_NAME":"STARLINK-36359","OBJECT_ID":"2026-038U","EPOCH":"2026-03-08T14:00:01.999872","MEAN_MOTION":15.93300577,"ECCENTRICITY":0.00013285,"INCLINATION":97.2705,"RA_OF_ASC_NODE":77.801,"ARG_OF_PERICENTER":102.5139,"MEAN_ANOMALY":142.6142,"EPHEMERIS_TYPE":0,"CLASSIFICATION_TYPE":"U","NORAD_CAT_ID":67979,"ELEMENT_SET_NO":999,"REV_AT_EPOCH":302,"BSTAR":-0.0048650262,"MEAN_MOTION_DOT":-0.01699557,"MEAN_MOTION_DDOT":0.00081491359},{"OBJECT_NAME":"STARLINK-36882","OBJECT_ID":"2026-038V","EPOCH":"2026-03-08T14:00:01.999872","MEAN_MOTION":15.93803962,"ECCENTRICITY":0.00013532,"INCLINATION":97.2698,"RA_OF_ASC_NODE":77.8073,"ARG_OF_PERICENTER":98.2722,"MEAN_ANOMALY":160.8495,"EPHEMERIS_TYPE":0,"CLASSIFICATION_TYPE":"U","NORAD_CAT_ID":67980,"ELEMENT_SET_NO":999,"REV_AT_EPOCH":302,"BSTAR":-0.0047034721,"MEAN_MOTION_DOT":-0.01687054,"MEAN_MOTION_DDOT":0.00080797901},{"OBJECT_NAME":"STARLINK-36874","OBJECT_ID":"2026-038W","EPOCH":"2026-03-08T14:00:01.999872","MEAN_MOTION":15.94094794,"ECCENTRICITY":0.00013068,"INCLINATION":97.2696,"RA_OF_ASC_NODE":77.8107,"ARG_OF_PERICENTER":95.929,"MEAN_ANOMALY":171.1809,"EPHEMERIS_TYPE":0,"CLASSIFICATION_TYPE":"U","NORAD_CAT_ID":67981,"ELEMENT_SET_NO":999,"REV_AT_EPOCH":302,"BSTAR":-0.004629196,"MEAN_MOTION_DOT":-0.01685954,"MEAN_MOTION_DDOT":0.00080943567},{"OBJECT_NAME":"STARLINK-36879","OBJECT_ID":"2026-038X","EPOCH":"2026-03-08T14:00:01.999872","MEAN_MOTION":15.94242258,"ECCENTRICITY":0.00012399,"INCLINATION":97.2691,"RA_OF_ASC_NODE":77.8123,"ARG_OF_PERICENTER":103.689,"MEAN_ANOMALY":167.5577,"EPHEMERIS_TYPE":0,"CLASSIFICATION_TYPE":"U","NORAD_CAT_ID":67982,"ELEMENT_SET_NO":999,"REV_AT_EPOCH":302,"BSTAR":-0.0045754034,"MEAN_MOTION_DOT":-0.01679404,"MEAN_MOTION_DDOT":0.00080482637},{"OBJECT_NAME":"STARLINK-36867","OBJECT_ID":"2026-038Y","EPOCH":"2026-03-08T14:00:01.999872","MEAN_MOTION":15.94551524,"ECCENTRICITY":0.00013333,"INCLINATION":97.2688,"RA_OF_ASC_NODE":77.8161,"ARG_OF_PERICENTER":89.8269,"MEAN_ANOMALY":189.8337,"EPHEMERIS_TYPE":0,"CLASSIFICATION_TYPE":"U","NORAD_CAT_ID":67983,"ELEMENT_SET_NO":999,"REV_AT_EPOCH":302,"BSTAR":-0.0045105972,"MEAN_MOTION_DOT":-0.01682832,"MEAN_MOTION_DDOT":0.00081049907},{"OBJECT_NAME":"STARLINK-36266","OBJECT_ID":"2026-038Z","EPOCH":"2026-03-08T14:00:01.999872","MEAN_MOTION":15.94415122,"ECCENTRICITY":0.00013018,"INCLINATION":97.269,"RA_OF_ASC_NODE":77.8146,"ARG_OF_PERICENTER":99.5897,"MEAN_ANOMALY":176.2838,"EPHEMERIS_TYPE":0,"CLASSIFICATION_TYPE":"U","NORAD_CAT_ID":67984,"ELEMENT_SET_NO":999,"REV_AT_EPOCH":299,"BSTAR":-0.0045544474,"MEAN_MOTION_DOT":-0.01686939,"MEAN_MOTION_DDOT":0.00081302262}]
