STARLINK-36709          
1 67969U 26038J   26067.58335648 -.01725743  83097-3 -51702-2 0  9997
2 67969  97.2725  77.7916 0001440  97.1434 123.2592 15.92424963  3029
STARLINK-36319          
1 67970U 26038K   26067.58335648 -.01727781  83158-3 -52147-2 0  9995
2 67970  97.2724  77.7895 0001447  95.9038 120.4450 15.92281747  2997
STARLINK-36710          
1 67971U 26038L   26067.58335648 -.01719922  82723-3 -51062-2 0  9996
2 67971  97.2719  77.7937 0001400 102.2676 123.0720 15.92600141  3025
STARLINK-36894          
1 67972U 26038M   26067.58335648 -.01711864  82121-3 -50450-2 0  9996
2 67972  97.2715  77.7953 0001418  93.0938 136.3014 15.92741268  3026
STARLINK-36900          
1 67973U 26038N   26067.58335648 -.01712218  82399-3 -49701-2 0  9995
2 67973  97.2713  77.7985 0001411 102.7314 134.7832 15.93033839  3028
STARLINK-36901          
1 67974U 26038P   26067.58335648 -.01706370  81743-3 -49940-2 0  9995
2 67974  97.2713  77.7966 0001379  97.6101 135.6370 15.92874765  3024
STARLINK-36883          
1 67975U 26038Q   26067.58335648 -.01701040  81898-3 -47873-2 0  9999
2 67975  97.2703  77.8054 0001369  94.6597 159.3438 15.93626043  3021
STARLINK-36880          
1 67976U 26038R   26067.58335648 -.01711587  82468-3 -49300-2 0  9998
2 67976  97.2709  77.8002 0001406  98.8880 142.7787 15.93182480  3029
STARLINK-36904          
1 67977U 26038S   26067.58335648 -.01704039  82040-3 -48335-2 0  9996
2 67977  97.2703  77.8033 0001399  98.1212 151.7493 15.93476071  3027
STARLINK-36364          
1 67978U 26038T   26067.58335648 -.01691818  81370-3 -46740-2 0  9990
2 67978  97.2696  77.8093 0001301  97.9258 165.8083 15.93978193  3028
STARLINK-36359          
1 67979U 26038U   26067.58335648 -.01699557  81491-3 -48650-2 0  9995
2 67979  97.2705  77.8010 0001328 102.5139 142.6142 15.93300577  3023
STARLINK-36882          
1 67980U 26038V   26067.58335648 -.01687054  80798-3 -47035-2 0  9991
2 67980  97.2698  77.8073 0001353  98.2722 160.8495 15.93803962  3021
STARLINK-36874          
1 67981U 26038W   26067.58335648 -.01685954  80944-3 -46292-2 0  9996
2 67981  97.2696  77.8107 0001306  95.9290 171.1809 15.94094794  3020
STARLINK-36879          
1 67982U 26038X   26067.58335648 -.01679404  80483-3 -45754-2 0  9990
2 67982  97.2691  77.8123 0001239 103.6890 167.5577 15.94242258  3023
STARLINK-36867          
1 67983U 26038Y   26067.58335648 -.01682832  81050-3 -45106-2 0  9992
2 67983  97.2688  77.8161 0001333  89.8269 189.8337 15.94551524  3022
STARLINK-36266          
1 67984U 26038Z   26067.58335648 -.01686939  81302-3 -45544-2 0  9991
2 67984  97.2690  77.8146 0001301  99.5897 176.2838 15.94415122  2993
